{
  "type": "FeatureCollection",
  "features": [
    {
      "type": "Feature",
      "properties": {
        "norad_id": 40010,
        "name": "KAZEOSAT 2",
        "group": "resource",
        "lat": -45.60849502850803,
        "lon": 14.253573472002174,
        "alt_km": 616.7314806232625,
        "timestamp": "2025-12-24T07:45:05.855927+00:00",
        "meta_object_name": "KAZEOSAT 2",
        "meta_object_id": "2014-033A",
        "meta_epoch": "2025-12-23T22:39:09.544608",
        "meta_mean_motion": 14.85188993,
        "meta_eccentricity": 0.00086136,
        "meta_inclination": 97.5495,
        "meta_ra_of_asc_node": 201.6799,
        "meta_arg_of_pericenter": 167.5345,
        "meta_mean_anomaly": 192.6086,
        "meta_ephemeris_type": 0,
        "meta_classification_type": "U",
        "meta_norad_cat_id": 40010,
        "meta_element_set_no": 999,
        "meta_rev_at_epoch": 62294,
        "meta_bstar": 0.00020023562,
        "meta_mean_motion_dot": 1.666e-05,
        "meta_mean_motion_ddot": 0,
        "tle_line1": "1 40010U 14033A   25357.94386047  .00001666  00000+0  20024-3 0  9998",
        "tle_line2": "2 40010  97.5495 201.6799 0008613 167.5345 192.6086 14.85188993622940"
      },
      "geometry": {
        "type": "Point",
        "coordinates": [
          14.253573472002174,
          -45.60849502850803
        ]
      }
    },
    {
      "type": "Feature",
      "properties": {
        "norad_id": 40011,
        "name": "HODOYOSHI-4",
        "group": "resource",
        "lat": 49.584363833447235,
        "lon": 177.686260401175,
        "alt_km": 607.289760275572,
        "timestamp": "2025-12-24T07:45:05.855937+00:00",
        "meta_object_name": "HODOYOSHI-4",
        "meta_object_id": "2014-033B",
        "meta_epoch": "2025-12-23T23:27:14.241888",
        "meta_mean_motion": 14.87521658,
        "meta_eccentricity": 0.00239891,
        "meta_inclination": 97.5409,
        "meta_ra_of_asc_node": 186.3072,
        "meta_arg_of_pericenter": 162.8317,
        "meta_mean_anomaly": 197.3717,
        "meta_ephemeris_type": 0,
        "meta_classification_type": "U",
        "meta_norad_cat_id": 40011,
        "meta_element_set_no": 999,
        "meta_rev_at_epoch": 62275,
        "meta_bstar": 0.00020995774,
        "meta_mean_motion_dot": 1.862e-05,
        "meta_mean_motion_ddot": 0,
        "tle_line1": "1 40011U 14033B   25357.97724817  .00001862  00000+0  20996-3 0  9999",
        "tle_line2": "2 40011  97.5409 186.3072 0023989 162.8317 197.3717 14.87521658622752"
      },
      "geometry": {
        "type": "Point",
        "coordinates": [
          177.686260401175,
          49.584363833447235
        ]
      }
    },
    {
      "type": "Feature",
      "properties": {
        "norad_id": 40013,
        "name": "DEIMOS-2",
        "group": "resource",
        "lat": 74.60213420624284,
        "lon": -155.28270272102597,
        "alt_km": 580.5586037098465,
        "timestamp": "2025-12-24T07:45:05.855948+00:00",
        "meta_object_name": "DEIMOS-2",
        "meta_object_id": "2014-033D",
        "meta_epoch": "2025-12-23T21:45:32.685984",
        "meta_mean_motion": 14.93018376,
        "meta_eccentricity": 0.00014069,
        "meta_inclination": 97.6057,
        "meta_ra_of_asc_node": 233.3389,
        "meta_arg_of_pericenter": 105.4039,
        "meta_mean_anomaly": 254.7337,
        "meta_ephemeris_type": 0,
        "meta_classification_type": "U",
        "meta_norad_cat_id": 40013,
        "meta_element_set_no": 999,
        "meta_rev_at_epoch": 61156,
        "meta_bstar": 0.00012174848,
        "meta_mean_motion_dot": 1.212e-05,
        "meta_mean_motion_ddot": 0,
        "tle_line1": "1 40013U 14033D   25357.90662831  .00001212  00000+0  12175-3 0  9990",
        "tle_line2": "2 40013  97.6057 233.3389 0001406 105.4039 254.7337 14.93018376611560"
      },
      "geometry": {
        "type": "Point",
        "coordinates": [
          -155.28270272102597,
          74.60213420624284
        ]
      }
    },
    {
      "type": "Feature",
      "properties": {
        "norad_id": 40015,
        "name": "HODOYOSHI-3",
        "group": "resource",
        "lat": -44.22189534100339,
        "lon": -23.832029852098675,
        "alt_km": 598.9841729769623,
        "timestamp": "2025-12-24T07:45:05.855958+00:00",
        "meta_object_name": "HODOYOSHI-3",
        "meta_object_id": "2014-033F",
        "meta_epoch": "2025-12-23T22:39:21.603456",
        "meta_mean_motion": 14.84843414,
        "meta_eccentricity": 0.0032444,
        "meta_inclination": 97.6206,
        "meta_ra_of_asc_node": 163.2923,
        "meta_arg_of_pericenter": 209.8678,
        "meta_mean_anomaly": 150.0687,
        "meta_ephemeris_type": 0,
        "meta_classification_type": "U",
        "meta_norad_cat_id": 40015,
        "meta_element_set_no": 999,
        "meta_rev_at_epoch": 62161,
        "meta_bstar": 0.0001914071,
        "meta_mean_motion_dot": 1.589e-05,
        "meta_mean_motion_ddot": 0,
        "tle_line1": "1 40015U 14033F   25357.94400004  .00001589  00000+0  19141-3 0  9995",
        "tle_line2": "2 40015  97.6206 163.2923 0032444 209.8678 150.0687 14.84843414621619"
      },
      "geometry": {
        "type": "Point",
        "coordinates": [
          -23.832029852098675,
          -44.22189534100339
        ]
      }
    },
    {
      "type": "Feature",
      "properties": {
        "norad_id": 40053,
        "name": "SPOT 7",
        "group": "resource",
        "lat": 24.418824117510017,
        "lon": 56.42864843705707,
        "alt_km": 689.5293417248331,
        "timestamp": "2025-12-24T07:45:05.855968+00:00",
        "meta_object_name": "SPOT 7",
        "meta_object_id": "2014-034A",
        "meta_epoch": "2025-12-23T23:25:08.889312",
        "meta_mean_motion": 14.60747123,
        "meta_eccentricity": 0.00015359,
        "meta_inclination": 98.089,
        "meta_ra_of_asc_node": 59.7917,
        "meta_arg_of_pericenter": 82.4881,
        "meta_mean_anomaly": 277.6494,
        "meta_ephemeris_type": 0,
        "meta_classification_type": "U",
        "meta_norad_cat_id": 40053,
        "meta_element_set_no": 999,
        "meta_rev_at_epoch": 61155,
        "meta_bstar": 0.00012354602,
        "meta_mean_motion_dot": 5.57e-06,
        "meta_mean_motion_ddot": 0,
        "tle_line1": "1 40053U 14034A   25357.97579733  .00000557  00000+0  12355-3 0  9991",
        "tle_line2": "2 40053  98.0890  59.7917 0001535  82.4881 277.6494 14.60747123611553"
      },
      "geometry": {
        "type": "Point",
        "coordinates": [
          56.42864843705707,
          24.418824117510017
        ]
      }
    },
    {
      "type": "Feature",
      "properties": {
        "norad_id": 40072,
        "name": "SKYSAT-B",
        "group": "resource",
        "lat": -12.055551315170245,
        "lon": -55.558204673133,
        "alt_km": 613.6115161080188,
        "timestamp": "2025-12-24T07:45:05.855978+00:00",
        "meta_object_name": "SKYSAT-B",
        "meta_object_id": "2014-037D",
        "meta_epoch": "2025-12-23T09:12:08.448768",
        "meta_mean_motion": 14.8736338,
        "meta_eccentricity": 0.00067806,
        "meta_inclination": 98.3626,
        "meta_ra_of_asc_node": 301.6522,
        "meta_arg_of_pericenter": 120.3207,
        "meta_mean_anomaly": 239.8679,
        "meta_ephemeris_type": 0,
        "meta_classification_type": "U",
        "meta_norad_cat_id": 40072,
        "meta_element_set_no": 999,
        "meta_rev_at_epoch": 61982,
        "meta_bstar": 0.00018052931,
        "meta_mean_motion_dot": 1.571e-05,
        "meta_mean_motion_ddot": 0,
        "tle_line1": "1 40072U 14037D   25357.38343112  .00001571  00000+0  18053-3 0  9998",
        "tle_line2": "2 40072  98.3626 301.6522 0006780 120.3207 239.8679 14.87363380619827"
      },
      "geometry": {
        "type": "Point",
        "coordinates": [
          -55.558204673133,
          -12.055551315170245
        ]
      }
    },
    {
      "type": "Feature",
      "properties": {
        "norad_id": 40115,
        "name": "WORLDVIEW-3 (WV-3)",
        "group": "resource",
        "lat": 37.07757503031791,
        "lon": -103.53366693676303,
        "alt_km": 610.6382235039882,
        "timestamp": "2025-12-24T07:45:05.855989+00:00",
        "meta_object_name": "WORLDVIEW-3 (WV-3)",
        "meta_object_id": "2014-048A",
        "meta_epoch": "2025-12-23T21:24:26.394624",
        "meta_mean_motion": 14.84672352,
        "meta_eccentricity": 0.00019791,
        "meta_inclination": 97.8765,
        "meta_ra_of_asc_node": 70.0356,
        "meta_arg_of_pericenter": 130.8483,
        "meta_mean_anomaly": 229.2904,
        "meta_ephemeris_type": 0,
        "meta_classification_type": "U",
        "meta_norad_cat_id": 40115,
        "meta_element_set_no": 999,
        "meta_rev_at_epoch": 61589,
        "meta_bstar": 0.00012733018,
        "meta_mean_motion_dot": 1.024e-05,
        "meta_mean_motion_ddot": 0,
        "tle_line1": "1 40115U 14048A   25357.89197216  .00001024  00000+0  12733-3 0  9998",
        "tle_line2": "2 40115  97.8765  70.0356 0001979 130.8483 229.2904 14.84672352615898"
      },
      "geometry": {
        "type": "Point",
        "coordinates": [
          -103.53366693676303,
          37.07757503031791
        ]
      }
    }
  ]
}